OBJECT_NAME,OBJECT_ID,EPOCH,MEAN_MOTION,ECCENTRICITY,INCLINATION,RA_OF_ASC_NODE,ARG_OF_PERICENTER,MEAN_ANOMALY,EPHEMERIS_TYPE,CLASSIFICATION_TYPE,NORAD_CAT_ID,ELEMENT_SET_NO,REV_AT_EPOCH,BSTAR,MEAN_MOTION_DOT,MEAN_MOTION_DDOT
ATLAS CENTAUR 2,1963-047A,2026-06-26T18:00:18.908640,14.12534272,.05459146,30.3571,305.9168,321.8332,34.4784,0,U,694,999,14705,.95647232E-4,.894E-5,0
THOR AGENA D R/B,1964-002A,2026-06-26T22:11:47.587776,14.34069161,.00319055,99.1152,197.1821,301.5328,58.2739,0,U,733,999,25395,.803472E-4,.177E-5,0
SL-3 R/B,1964-053B,2026-06-26T21:50:48.718176,14.61430741,.00807902,65.0776,11.0030,258.0472,101.1563,0,U,877,999,28275,.48005325E-4,.123E-5,0
SL-8 R/B,1967-045B,2026-06-26T23:33:14.244768,14.45686317,.00631393,74.0103,143.9659,125.7220,234.9835,0,U,2802,999,10481,.66942948E-4,.215E-5,0
SL-8 R/B,1968-040B,2026-06-26T21:29:40.992576,15.03860680,.00258188,74.0311,90.4357,241.9812,117.8765,0,U,3230,999,10642,.22194363E-3,.3035E-4,0
OAO 2,1968-110A,2026-06-26T22:04:00.150816,14.47355653,.00056403,34.9949,15.3379,345.7326,14.3205,0,U,3597,999,3493,.57133893E-4,.193E-5,0
ISIS 1,1969-009A,2026-06-26T20:08:34.754496,11.30434874,.17065746,88.4433,143.3391,228.7206,115.4081,0,U,3669,999,36086,.33479801E-4,.49E-6,0
SERT 2,1970-009A,2026-06-26T19:52:04.568160,13.58739862,.000395,99.2841,115.0236,242.6228,180.1836,0,U,4327,999,79471,.27395557E-4,-.21E-6,0
SL-3 R/B,1971-028B,2026-06-26T20:52:09.779232,15.70654465,.00143162,81.2331,276.2183,245.5688,114.4077,0,U,5118,999,576,.41559508E-3,.51794E-3,0
ASTEX 1,1971-089A,2026-06-26T22:26:19.017312,14.50858456,.00179378,92.6997,186.9951,77.6520,282.6693,0,U,5560,999,87814,.10989988E-3,.433E-5,0
SL-8 R/B,1971-119B,2026-06-26T21:15:14.678784,14.39565787,.05436058,73.8879,331.2807,275.2998,78.6385,0,U,5730,999,67119,.20596334E-3,.3999E-4,0
OAO 3 (COPERNICUS),1972-065A,2026-06-26T08:26:07.179072,14.60065069,.0007001,35.0069,38.1868,324.0375,202.2934,0,U,6153,999,86208,.61825E-4,.281E-5,0
ATLAS CENTAUR R/B,1972-065B,2026-06-26T22:30:57.636576,14.77938279,.0033886,35.0029,25.3761,211.2997,148.5685,0,U,6155,999,85743,.13383855E-3,.966E-5,0
SL-8 R/B,1975-112B,2026-06-26T17:01:14.554272,14.38251164,.00167484,74.0590,178.3561,244.1404,115.8023,0,U,8459,999,64754,.85742465E-4,.235E-5,0
SL-3 R/B,1977-057B,2026-06-26T21:55:23.983392,15.48072447,.00057088,97.5838,354.9267,240.2162,119.8520,0,U,10114,999,68521,.21374175E-3,.11108E-3,0
SEASAT 1,1978-064A,2026-06-26T22:09:16.361856,14.46249605,.00015254,108.0178,354.7265,240.9784,119.1209,0,U,10967,999,52230,.10000749E-3,.221E-5,0
SL-14 R/B,1979-011B,2026-06-26T23:12:32.334624,14.92022768,.00172485,82.5238,352.8716,55.6958,304.5891,0,U,11267,999,54507,.47624174E-4,.51E-5,0
SL-8 R/B,1979-089B,2026-06-26T21:57:27.360864,14.42408100,.00152843,74.0685,248.8501,29.0725,331.1279,0,U,11574,999,45185,.68661476E-4,.201E-5,0
SL-14 R/B,1980-005B,2026-06-26T18:48:25.611264,14.91035784,.00163705,82.5132,203.7372,154.3796,205.8238,0,U,11672,999,49274,.45226014E-4,.474E-5,0
SL-8 R/B,1981-003B,2026-06-26T11:15:56.547072,15.14501851,.0250607,82.9361,189.1458,158.7239,202.4646,0,U,12139,999,33112,.38681E-3,.16004E-3,0
SL-3 R/B,1981-046B,2026-06-26T23:21:48.890592,15.44398480,.00174543,81.2292,158.2782,4.4296,355.7099,0,U,12465,999,45528,.26982856E-3,.12568E-3,0
SL-3 R/B,1981-103B,2026-06-26T21:55:20.409024,15.22359739,.0011439,81.1589,85.2068,279.6625,80.3314,0,U,12904,999,98984,.18483254E-3,.4296E-4,0
SL-3 R/B,1982-013B,2026-06-26T21:09:55.048896,15.22844489,.00221144,81.1737,32.6779,167.9782,192.1983,0,U,13068,999,42096,.17620306E-3,.4177E-4,0
SL-3 R/B,1982-039B,2026-06-26T21:42:45.003456,15.10597942,.00278002,81.1475,89.8588,322.9173,37.0131,0,U,13154,999,39812,.21623731E-3,.3625E-4,0
SL-3 R/B,1982-079B,2026-06-26T21:18:03.120768,15.25865263,.00244424,81.1465,64.0134,153.0761,207.1747,0,U,13403,999,39434,.20292474E-3,.5266E-4,0
SL-14 R/B,1982-092B,2026-06-26T20:51:08.951904,14.86753718,.00189479,82.5675,39.2434,301.4118,68.9724,0,U,13553,999,34515,.37951588E-4,.363E-5,0
SL-3 R/B,1983-010B,2026-06-26T21:01:11.447616,15.49478078,.0014878,81.1010,228.0306,29.5859,330.6226,0,U,13819,999,37483,.25336211E-3,.14038E-3,0
SL-3 R/B,1983-075B,2026-06-26T22:36:20.306016,15.40660188,.00203714,97.6100,186.8455,192.6132,167.4607,0,U,14208,999,34696,.24330072E-3,.9902E-4,0
COSMOS 1536,1984-013A,2026-06-26T22:31:27.613056,15.25149406,.00125961,82.5441,359.1313,256.6858,103.2976,0,U,14699,999,28926,.24099206E-3,.6084E-4,0
SL-14 R/B,1984-027B,2026-06-26T23:28:45.241824,14.86066735,.00172641,82.5419,142.5354,336.4628,23.5797,0,U,14820,999,26386,.47183444E-4,.438E-5,0
