ATLAS CENTAUR 2         
1 00694U 63047A   26177.75021885  .00000894  00000+0  95647-4 0  9993
2 00694  30.3571 305.9168 0545914 321.8332  34.4784 14.12534272147050
THOR AGENA D R/B        
1 00733U 64002A   26177.92485634  .00000177  00000+0  80347-4 0  9999
2 00733  99.1152 197.1821 0031905 301.5328  58.2739 14.34069161253954
SL-3 R/B                
1 00877U 64053B   26177.91028609  .00000123  00000+0  48005-4 0  9994
2 00877  65.0776  11.0030 0080790 258.0472 101.1563 14.61430741282754
SL-8 R/B                
1 02802U 67045B   26177.98141487  .00000215  00000+0  66943-4 0  9998
2 02802  74.0103 143.9659 0063139 125.7220 234.9835 14.45686317104810
SL-8 R/B                
1 03230U 68040B   26177.89561334  .00003035  00000+0  22194-3 0  9999
2 03230  74.0311  90.4357 0025818 241.9812 117.8765 15.03860680106420
OAO 2                   
1 03597U 68110A   26177.91944619  .00000193  00000+0  57134-4 0  9992
2 03597  34.9949  15.3379 0005640 345.7326  14.3205 14.47355653 34934
ISIS 1                  
1 03669U 69009A   26177.83929114  .00000049  00000+0  33480-4 0  9992
2 03669  88.4433 143.3391 1706574 228.7206 115.4081 11.30434874360865
SERT 2                  
1 04327U 70009A   26177.82783065 -.00000021  00000+0  27396-4 0  9998
2 04327  99.2841 115.0236 0003950 242.6228 180.1836 13.58739862794719
SL-3 R/B                
1 05118U 71028B   26177.86955763  .00051794  00000+0  41560-3 0  9999
2 05118  81.2331 276.2183 0014316 245.5688 114.4077 15.70654465  5762
ASTEX 1                 
1 05560U 71089A   26177.93494233  .00000433  00000+0  10990-3 0  9992
2 05560  92.6997 186.9951 0017937  77.6520 282.6693 14.50858456878143
SL-8 R/B                
1 05730U 71119B   26177.88558656  .00003999  00000+0  20596-3 0  9992
2 05730  73.8879 331.2807 0543605 275.2998  78.6385 14.39565787671194
OAO 3 (COPERNICUS)      
1 06153U 72065A   26177.35147198  .00000281  00000+0  61825-4 0  9992
2 06153  35.0069  38.1868 0007001 324.0375 202.2934 14.60065069862089
ATLAS CENTAUR R/B       
1 06155U 72065B   26177.93816709  .00000966  00000+0  13384-3 0  9995
2 06155  35.0029  25.3761 0033886 211.2997 148.5685 14.77938279857432
SL-8 R/B                
1 08459U 75112B   26177.70919623  .00000235  00000+0  85742-4 0  9991
2 08459  74.0590 178.3561 0016748 244.1404 115.8023 14.38251164647540
SL-3 R/B                
1 10114U 77057B   26177.91347203  .00011108  00000+0  21374-3 0  9995
2 10114  97.5838 354.9267 0005708 240.2162 119.8520 15.48072447685212
SEASAT 1                
1 10967U 78064A   26177.92310604  .00000221  00000+0  10001-3 0  9995
2 10967 108.0178 354.7265 0001525 240.9784 119.1209 14.46249605522305
SL-14 R/B               
1 11267U 79011B   26177.96704091  .00000510  00000+0  47624-4 0  9996
2 11267  82.5238 352.8716 0017248  55.6958 304.5891 14.92022768545071
SL-8 R/B                
1 11574U 79089B   26177.91490001  .00000201  00000+0  68661-4 0  9991
2 11574  74.0685 248.8501 0015284  29.0725 331.1279 14.42408100451856
SL-14 R/B               
1 11672U 80005B   26177.78362976  .00000474  00000+0  45226-4 0  9998
2 11672  82.5132 203.7372 0016370 154.3796 205.8238 14.91035784492742
SL-8 R/B                
1 12139U 81003B   26177.46940448  .00016004  00000+0  38681-3 0  9999
2 12139  82.9361 189.1458 0250607 158.7239 202.4646 15.14501851331123
SL-3 R/B                
1 12465U 81046B   26177.97348253  .00012568  00000+0  26983-3 0  9993
2 12465  81.2292 158.2782 0017454   4.4296 355.7099 15.44398480455281
SL-3 R/B                
1 12904U 81103B   26177.91343066  .00004296  00000+0  18483-3 0  9991
2 12904  81.1589  85.2068 0011439 279.6625  80.3314 15.22359739989847
SL-3 R/B                
1 13068U 82013B   26177.88188714  .00004177  00000+0  17620-3 0  9997
2 13068  81.1737  32.6779 0022114 167.9782 192.1983 15.22844489420962
SL-3 R/B                
1 13154U 82039B   26177.90468754  .00003625  00000+0  21624-3 0  9995
2 13154  81.1475  89.8588 0027800 322.9173  37.0131 15.10597942398123
SL-3 R/B                
1 13403U 82079B   26177.88753612  .00005266  00000+0  20292-3 0  9996
2 13403  81.1465  64.0134 0024442 153.0761 207.1747 15.25865263394349
SL-14 R/B               
1 13553U 82092B   26177.86885361  .00000363  00000+0  37952-4 0  9997
2 13553  82.5675  39.2434 0018947 301.4118  68.9724 14.86753718345158
SL-3 R/B                
1 13819U 83010B   26177.87582694  .00014038  00000+0  25336-3 0  9993
2 13819  81.1010 228.0306 0014878  29.5859 330.6226 15.49478078374832
SL-3 R/B                
1 14208U 83075B   26177.94190169  .00009902  00000+0  24330-3 0  9994
2 14208  97.6100 186.8455 0020371 192.6132 167.4607 15.40660188346962
COSMOS 1536             
1 14699U 84013A   26177.93851404  .00006084  00000+0  24099-3 0  9996
2 14699  82.5441 359.1313 0012596 256.6858 103.2976 15.25149406289265
SL-14 R/B               
1 14820U 84027B   26177.97830141  .00000438  00000+0  47183-4 0  9993
2 14820  82.5419 142.5354 0017264 336.4628  23.5797 14.86066735263866
